$$SOE
2459580.500000000, A.D. 2022-Jan-01 00:00:00.0000, -7.878381045058851E+07, -2.801138121126377E+08, 3.941025006856829E+06,
2459587.500000000, A.D. 2022-Jan-08 00:00:00.0000, -6.758481147662787E+07, -2.845489092830780E+08, 7.961075326371789E+06,
2459594.500000000, A.D. 2022-Jan-15 00:00:00.0000, -5.625476223025630E+07, -2.884325180079874E+08, 1.196571555313376E+07,
2459601.500000000, A.D. 2022-Jan-22 00:00:00.0000, -4.481731840759688E+07, -2.917658264890699E+08, 1.594754396282350E+07,
2459608.500000000, A.D. 2022-Jan-29 00:00:00.0000, -3.329559859042789E+07, -2.945509414554292E+08, 1.989942482592997E+07,
2459615.500000000, A.D. 2022-Feb-05 00:00:00.0000, -2.171217530761658E+07, -2.967908267602069E+08, 2.381448567969833E+07,
2459622.500000000, A.D. 2022-Feb-12 00:00:00.0000, -1.008906795477172E+07, -2.984892465319591E+08, 2.768611339346075E+07,
2459629.500000000, A.D. 2022-Feb-19 00:00:00.0000, 1.552261607964275E+06, -2.996507105522971E+08, 3.150794950712195E+07,
2459636.500000000, A.D. 2022-Feb-26 00:00:00.0000, 1.319090993498386E+07, -3.002804225782010E+08, 3.527388505206232E+07,
2459643.500000000, A.D. 2022-Mar-05 00:00:00.0000, 2.480652993934674E+07, -3.003842321860288E+08, 3.897805492162403E+07,
2459650.500000000, A.D. 2022-Mar-12 00:00:00.0000, 3.637932651570106E+07, -2.999685901348356E+08, 4.261483188249110E+07,
2459657.500000000, A.D. 2022-Mar-19 00:00:00.0000, 4.789005027067453E+07, -2.990405071296713E+08, 4.617882032515971E+07,
2459664.500000000, A.D. 2022-Mar-26 00:00:00.0000, 5.931998971048710E+07, -2.976075158840476E+08, 4.966484984099779E+07,
2459671.500000000, A.D. 2022-Apr-02 00:00:00.0000, 7.065096225087874E+07, -2.956776364234173E+08, 5.306796869648153E+07,
2459678.500000000, A.D. 2022-Apr-09 00:00:00.0000, 8.186530458642042E+07, -2.932593445057461E+08, 5.638343725417982E+07,
2459685.500000000, A.D. 2022-Apr-16 00:00:00.0000, 9.294586301020695E+07, -2.903615423798754E+08, 5.960672142699987E+07,
2459692.500000000, A.D. 2022-Apr-23 00:00:00.0000, 1.038759826200685E+08, -2.869935306662542E+08, 6.273348642719600E+07,
2459699.500000000, A.D. 2022-Apr-30 00:00:00.0000, 1.146394937194500E+08, -2.831649834670403E+08, 6.575959084361412E+07,
2459706.500000000, A.D. 2022-May-07 00:00:00.0000, 1.252206986340517E+08, -2.788859285354492E+08, 6.868108063873836E+07,
2459713.500000000, A.D. 2022-May-14 00:00:00.0000, 1.356043604798368E+08, -2.741667293237728E+08, 7.149418321170914E+07,
2459720.500000000, A.D. 2022-May-21 00:00:00.0000, 1.457756919900030E+08, -2.690180680149292E+08, 7.419530179735768E+07,
2459727.500000000, A.D. 2022-May-28 00:00:00.0000, 1.557203440525472E+08, -2.634509303713723E+08, 7.678101019075420E+07,
2459734.500000000, A.D. 2022-Jun-04 00:00:00.0000, 1.654243943506297E+08, -2.574765926022056E+08, 7.924804777376644E+07,
2459741.500000000, A.D. 2022-Jun-11 00:00:00.0000, 1.748743363457181E+08, -2.511066101411856E+08, 8.159331485667039E+07,
2459748.500000000, A.D. 2022-Jun-18 00:00:00.0000, 1.840570687209502E+08, -2.443528082176904E+08, 8.381386835216311E+07,
2459755.500000000, A.D. 2022-Jun-25 00:00:00.0000, 1.929598853832104E+08, -2.372272741477624E+08, 8.590691778895041E+07,
2459762.500000000, A.D. 2022-Jul-02 00:00:00.0000, 2.015704662238331E+08, -2.297423513056707E+08, 8.786982165592295E+07,
2459769.500000000, A.D. 2022-Jul-09 00:00:00.0000, 2.098768690933588E+08, -2.219106344998560E+08, 8.970008406544946E+07,
2459776.500000000, A.D. 2022-Jul-16 00:00:00.0000, 2.178675229962623E+08, -2.137449655808825E+08, 9.139535184149687E+07,
2459783.500000000, A.D. 2022-Jul-23 00:00:00.0000, 2.255312203606136E+08, -2.052584291204018E+08, 9.295341225107701E+07,
2459790.500000000, A.D. 2022-Jul-30 00:00:00.0000, 2.328571085138795E+08, -1.964643514318958E+08, 9.437219110317793E+07,
2459797.500000000, A.D. 2022-Aug-06 00:00:00.0000, 2.398346840104508E+08, -1.873763022025942E+08, 9.564975094259711E+07,
2459804.500000000, A.D. 2022-Aug-13 00:00:00.0000, 2.464537890356973E+08, -1.780080959050203E+08, 9.678428964549354E+07,
2459811.500000000, A.D. 2022-Aug-20 00:00:00.0000, 2.527046083638061E+08, -1.683737934178395E+08, 9.777413952528998E+07,
2459818.500000000, A.D. 2022-Aug-27 00:00:00.0000, 2.585776669838167E+08, -1.584877045087583E+08, 9.861776688803370E+07,
2459825.500000000, A.D. 2022-Sep-03 00:00:00.0000, 2.640638286900057E+08, -1.483643912156609E+08, 9.931377201084620E+07,
2459832.500000000, A.D. 2022-Sep-10 00:00:00.0000, 2.691542957777990E+08, -1.380186720280371E+08, 9.986088954499608E+07,
2459839.500000000, A.D. 2022-Sep-17 00:00:00.0000, 2.738406099279888E+08, -1.274656267978247E+08, 1.002579893514632E+08,
2459846.500000000, A.D. 2022-Sep-24 00:00:00.0000, 2.781146543934867E+08, -1.167206023595271E+08, 1.005040777712795E+08,
2459853.500000000, A.D. 2022-Oct-01 00:00:00.0000, 2.819686577812464E+08, -1.057992188095644E+08, 1.005982993171453E+08,
2459860.500000000, A.D. 2022-Oct-08 00:00:00.0000, 2.853951998911554E+08, -9.471737584461224E+07, 1.005399388012171E+08,
2459867.500000000, A.D. 2022-Oct-15 00:00:00.0000, 2.883872187418211E+08, -8.349125787902230E+07, 1.003284240967293E+08,
2459874.500000000, A.D. 2022-Oct-22 00:00:00.0000, 2.909380166658443E+08, -7.213733954729797E+07, 9.996332961114907E+07,
2459881.500000000, A.D. 2022-Oct-29 00:00:00.0000, 2.930412680316850E+08, -6.067239410042162E+07, 9.944438003782019E+07,
2459888.500000000, A.D. 2022-Nov-05 00:00:00.0000, 2.946910307525491E+08, -4.911350185691111E+07, 9.877145442367783E+07,
2459895.500000000, A.D. 2022-Nov-12 00:00:00.0000, 2.958817596853358E+08, -3.747805733582114E+07, 9.794459084647298E+07,
2459902.500000000, A.D. 2022-Nov-19 00:00:00.0000, 2.966083212711948E+08, -2.578377591356821E+07, 9.696399170004386E+07,
2459909.500000000, A.D. 2022-Nov-26 00:00:00.0000, 2.968660097517937E+08, -1.404870028003326E+07, 9.583002954070552E+07,
2459916.500000000, A.D. 2022-Dec-03 00:00:00.0000, 2.966505651999748E+08, -2.291206572050221E+06, 9.454325348718111E+07,
2459923.500000000, A.D. 2022-Dec-10 00:00:00.0000, 2.959581934834482E+08, 9.469989980772302E+06, 9.310439617901048E+07,
2459930.500000000, A.D. 2022-Dec-17 00:00:00.0000, 2.947855882593978E+08, 2.121583003352094E+07, 9.151438129562213E+07,
2459937.500000000, A.D. 2022-Dec-24 00:00:00.0000, 2.931299551819128E+08, 3.292690583632637E+07, 8.977433162564886E+07,
2459944.500000000, A.D. 2022-Dec-31 00:00:00.0000, 2.909890387482451E+08, 4.458345797515988E+07, 8.788557766328695E+07,
2459951.500000000, A.D. 2023-Jan-07 00:00:00.0000, 2.883611519640191E+08, 5.616537431611988E+07, 8.584966679264776E+07,
2459958.500000000, A.D. 2023-Jan-14 00:00:00.0000, 2.852452069142569E+08, 6.765219189013904E+07, 8.366837327588515E+07,
2459965.500000000, A.D. 2023-Jan-21 00:00:00.0000, 2.816407456553361E+08, 7.902309880160803E+07, 8.134370884337640E+07,
2459972.500000000, A.D. 2023-Jan-28 00:00:00.0000, 2.775479751383017E+08, 9.025693623363513E+07, 7.887793351799271E+07,
2459979.500000000, A.D. 2023-Feb-04 00:00:00.0000, 2.729678059735362E+08, 1.013322038731965E+08, 7.627356691173585E+07,
2459986.500000000, A.D. 2023-Feb-11 00:00:00.0000, 2.679018932428549E+08, 1.122270688833361E+08, 7.353340010659456E+07,
2459993.500000000, A.D. 2023-Feb-18 00:00:00.0000, 2.623526792700568E+08, 1.229193779444686E+08, 7.066050800706306E+07,
2460000.500000000, A.D. 2023-Feb-25 00:00:00.0000, 2.563234385520355E+08, 1.333866725804706E+08, 6.765826206270111E+07,
2460007.500000000, A.D. 2023-Mar-04 00:00:00.0000, 2.498183248589620E+08, 1.436062082024112E+08, 6.453034328209168E+07,
2460014.500000000, A.D. 2023-Mar-11 00:00:00.0000, 2.428424204096045E+08, 1.535549773149743E+08, 6.128075546041887E+07,
2460021.500000000, A.D. 2023-Mar-18 00:00:00.0000, 2.354017870122568E+08, 1.632097373003953E+08, 5.791383852513913E+07,
2460028.500000000, A.D. 2023-Mar-25 00:00:00.0000, 2.275035191702045E+08, 1.725470432117989E+08, 5.443428186812477E+07,
2460035.500000000, A.D. 2023-Apr-01 00:00:00.0000, 2.191557993115201E+08, 1.815432864610186E+08, 5.084713752091198E+07,
2460042.500000000, A.D. 2023-Apr-08 00:00:00.0000, 2.103679541834464E+08, 1.901747411213784E+08, 4.715783316081793E+07,
2460049.500000000, A.D. 2023-Apr-15 00:00:00.0000, 2.011505096340272E+08, 1.984176172505722E+08, 4.337218487782682E+07,
2460056.500000000, A.D. 2023-Apr-22 00:00:00.0000, 1.915152450865574E+08, 2.062481187125009E+08, 3.949640907859701E+07,
2460063.500000000, A.D. 2023-Apr-29 00:00:00.0000, 1.814752498554923E+08, 2.136425082527269E+08, 3.553713321869734E+07,
2460070.500000000, A.D. 2023-May-06 00:00:00.0000, 1.710449788372629E+08, 2.205771820791453E+08, 3.150140539354235E+07,
2460077.500000000, A.D. 2023-May-13 00:00:00.0000, 1.602403057857476E+08, 2.270287534925797E+08, 2.739670250179741E+07,
2460084.500000000, A.D. 2023-May-20 00:00:00.0000, 1.490785734843942E+08, 2.329741454578964E+08, 2.323093658792782E+07,
2460091.500000000, A.D. 2023-May-27 00:00:00.0000, 1.375786399698246E+08, 2.383906923884530E+08, 1.901245898244193E+07,
2460098.500000000, A.D. 2023-Jun-03 00:00:00.0000, 1.257609197069236E+08, 2.432562513697296E+08, 1.475006184783565E+07,
2460105.500000000, A.D. 2023-Jun-10 00:00:00.0000, 1.136474184644829E+08, 2.475493228803662E+08, 1.045297671404342E+07,
2460112.500000000, A.D. 2023-Jun-17 00:00:00.0000, 1.012617605943593E+08, 2.512491808670366E+08, 6.130869558397427E+06,
2460119.500000000, A.D. 2023-Jun-24 00:00:00.0000, 8.862920754743963E+07, 2.543360119624955E+08, 1.793831961118087E+06,
2460126.500000000, A.D. 2023-Jul-01 00:00:00.0000, 7.577666631318356E+07, 2.567910642002012E+08, -2.547632068007290E+06,
2460133.500000000, A.D. 2023-Jul-08 00:00:00.0000, 6.273268449297972E+07, 2.585968053187658E+08, -6.882623816246286E+06,
2460140.500000000, A.D. 2023-Jul-15 00:00:00.0000, 4.952742906670017E+07, 2.597370867957206E+08, -1.119987268440565E+07,
2460147.500000000, A.D. 2023-Jul-22 00:00:00.0000, 3.619265070673077E+07, 2.601973112862504E+08, -1.548776488478009E+07,
$$EOE